ONEWEB-0120             
1 47266U 20100J   25197.55674547 -.00000439  00000+0 -12561-2 0  9999
2 47266  87.8869  57.4176 0001750  77.7947 282.3377 13.12441064220706
ONEWEB-0121             
1 47267U 20100K   25197.54526649 -.00000080  00000+0 -25851-3 0  9997
2 47267  87.8860  57.3905 0001877  83.7480 276.3862 13.12438878220617
ONEWEB-0122             
1 47268U 20100L   25196.85412387 -.00000024  00000+0 -10093-3 0  9994
2 47268  87.8854  57.5332 0001913  79.5821 280.5523 13.12440792220439
ONEWEB-0123             
1 47269U 20100M   25196.84939691  .00000175  00000+0  45136-3 0  9997
2 47269  87.8857  57.5616 0001684  81.9488 278.1831 13.12440664220577
ONEWEB-0124             
1 47270U 20100N   25196.83803768  .00000386  00000+0  10366-2 0  9993
2 47270  87.8858  57.5621 0001817  88.7202 271.4135 13.12443799220455
ONEWEB-0125             
1 47271U 20100P   25196.89156350  .00000065  00000+0  14562-3 0  9995
2 47271  87.8865  57.5146 0001565  89.5036 270.6272 13.12445379220527
ONEWEB-0126             
1 47272U 20100Q   25196.91280591  .00000445  00000+0  12014-2 0  9995
2 47272  87.8877  57.5264 0001789  79.8858 280.2472 13.12442076220591
ONEWEB-0127             
1 47273U 20100R   25196.87858242 -.00000491  00000+0 -14002-2 0  9997
2 47273  87.8866  57.5499 0001844  77.6697 282.4638 13.12443536220612
